{"type": "FeatureCollection", "features": [{"type": "Feature", "properties": {"norad_id": 28890, "name": "BEIJING 1", "group": "dmc", "lat": 68.9588661736917, "lon": -55.15375606162886, "alt_km": 671.6541783925204, "timestamp": "2025-12-01T03:58:49.138762+00:00", "meta": {"OBJECT_NAME": "BEIJING 1", "OBJECT_ID": "2005-043A", "EPOCH": "2025-11-30T20:55:02.591328", "MEAN_MOTION": 14.63347414, "ECCENTRICITY": 0.0014683, "INCLINATION": 98.2648, "RA_OF_ASC_NODE": 102.351, "ARG_OF_PERICENTER": 177.5456, "MEAN_ANOMALY": 182.582, "EPHEMERIS_TYPE": 0, "CLASSIFICATION_TYPE": "U", "NORAD_CAT_ID": 28890, "ELEMENT_SET_NO": 999, "REV_AT_EPOCH": 7164, "BSTAR": 9.4334e-05, "MEAN_MOTION_DOT": 4.39e-06, "MEAN_MOTION_DDOT": 0, "GROUP": "dmc"}, "tle": {"line1": "1 28890U 05043A   25334.87155777  .00000439  00000+0  94334-4 0  9995", "line2": "2 28890  98.2648 102.3510 0014683 177.5456 182.5820 14.63347414 71646"}}, "geometry": {"type": "Point", "coordinates": [-55.15375606162886, 68.9588661736917]}}, {"type": "Feature", "properties": {"norad_id": 33320, "name": "HUANJING 1A (HJ-1A)", "group": "dmc", "lat": 24.534284365254063, "lon": -39.57009700691636, "alt_km": 607.9663604870684, "timestamp": "2025-12-01T03:58:49.138807+00:00", "meta": {"OBJECT_NAME": "HUANJING 1A (HJ-1A)", "OBJECT_ID": "2008-041A", "EPOCH": "2025-11-30T21:23:36.081312", "MEAN_MOTION": 14.83333052, "ECCENTRICITY": 0.002072, "INCLINATION": 97.6533, "RA_OF_ASC_NODE": 323.6858, "ARG_OF_PERICENTER": 70.9407, "MEAN_ANOMALY": 289.4049, "EPHEMERIS_TYPE": 0, "CLASSIFICATION_TYPE": "U", "NORAD_CAT_ID": 33320, "ELEMENT_SET_NO": 999, "REV_AT_EPOCH": 92900, "BSTAR": 0.00019521, "MEAN_MOTION_DOT": 1.554e-05, "MEAN_MOTION_DDOT": 0, "GROUP": "dmc"}, "tle": {"line1": "1 33320U 08041A   25334.89138983  .00001554  00000+0  19521-3 0  9995", "line2": "2 33320  97.6533 323.6858 0020720  70.9407 289.4049 14.83333052929007"}}, "geometry": {"type": "Point", "coordinates": [-39.57009700691636, 24.534284365254063]}}, {"type": "Feature", "properties": {"norad_id": 33321, "name": "HUANJING 1B (HJ-1B)", "group": "dmc", "lat": -82.35536963239599, "lon": 58.01842801145049, "alt_km": 652.5883126375365, "timestamp": "2025-12-01T03:58:49.138822+00:00", "meta": {"OBJECT_NAME": "HUANJING 1B (HJ-1B)", "OBJECT_ID": "2008-041B", "EPOCH": "2025-11-30T21:54:36.643104", "MEAN_MOTION": 14.82771438, "ECCENTRICITY": 0.0038077, "INCLINATION": 97.6394, "RA_OF_ASC_NODE": 327.4342, "ARG_OF_PERICENTER": 113.1477, "MEAN_ANOMALY": 247.3756, "EPHEMERIS_TYPE": 0, "CLASSIFICATION_TYPE": "U", "NORAD_CAT_ID": 33321, "ELEMENT_SET_NO": 999, "REV_AT_EPOCH": 92902, "BSTAR": 0.000158, "MEAN_MOTION_DOT": 1.241e-05, "MEAN_MOTION_DDOT": 0, "GROUP": "dmc"}, "tle": {"line1": "1 33321U 08041B   25334.91292411  .00001241  00000+0  15800-3 0  9995", "line2": "2 33321  97.6394 327.4342 0038077 113.1477 247.3756 14.82771438929027"}}, "geometry": {"type": "Point", "coordinates": [58.01842801145049, -82.35536963239599]}}, {"type": "Feature", "properties": {"norad_id": 33446, "name": "YAOGAN-4", "group": "dmc", "lat": -7.1719625724331575, "lon": 84.37660323720714, "alt_km": 635.1673683306317, "timestamp": "2025-12-01T03:58:49.138837+00:00", "meta": {"OBJECT_NAME": "YAOGAN-4", "OBJECT_ID": "2008-061A", "EPOCH": "2025-11-30T19:02:24.761760", "MEAN_MOTION": 14.82620391, "ECCENTRICITY": 0.0014627, "INCLINATION": 97.9166, "RA_OF_ASC_NODE": 265.0112, "ARG_OF_PERICENTER": 3.0675, "MEAN_ANOMALY": 357.0625, "EPHEMERIS_TYPE": 0, "CLASSIFICATION_TYPE": "U", "NORAD_CAT_ID": 33446, "ELEMENT_SET_NO": 999, "REV_AT_EPOCH": 91626, "BSTAR": 0.0002084, "MEAN_MOTION_DOT": 1.627e-05, "MEAN_MOTION_DDOT": 0, "GROUP": "dmc"}, "tle": {"line1": "1 33446U 08061A   25334.79334215  .00001627  00000+0  20840-3 0  9998", "line2": "2 33446  97.9166 265.0112 0014627   3.0675 357.0625 14.82620391916266"}}, "geometry": {"type": "Point", "coordinates": [84.37660323720714, -7.1719625724331575]}}, {"type": "Feature", "properties": {"norad_id": 35681, "name": "DEIMOS-1", "group": "dmc", "lat": -78.81237124399736, "lon": 179.57330621536116, "alt_km": 654.6090761444475, "timestamp": "2025-12-01T03:58:49.138852+00:00", "meta": {"OBJECT_NAME": "DEIMOS-1", "OBJECT_ID": "2009-041A", "EPOCH": "2025-11-30T20:12:36.910368", "MEAN_MOTION": 14.74922436, "ECCENTRICITY": 0.0002653, "INCLINATION": 97.7145, "RA_OF_ASC_NODE": 135.9998, "ARG_OF_PERICENTER": 100.9284, "MEAN_ANOMALY": 259.2224, "EPHEMERIS_TYPE": 0, "CLASSIFICATION_TYPE": "U", "NORAD_CAT_ID": 35681, "ELEMENT_SET_NO": 999, "REV_AT_EPOCH": 87764, "BSTAR": 0.00011618, "MEAN_MOTION_DOT": 7.33e-06, "MEAN_MOTION_DDOT": 0, "GROUP": "dmc"}, "tle": {"line1": "1 35681U 09041A   25334.84209387  .00000733  00000+0  11618-3 0  9997", "line2": "2 35681  97.7145 135.9998 0002653 100.9284 259.2224 14.74922436877642"}}, "geometry": {"type": "Point", "coordinates": [179.57330621536116, -78.81237124399736]}}, {"type": "Feature", "properties": {"norad_id": 35683, "name": "UK-DMC 2", "group": "dmc", "lat": -80.94973506372978, "lon": -129.69560383486902, "alt_km": 651.5109131759637, "timestamp": "2025-12-01T03:58:49.138864+00:00", "meta": {"OBJECT_NAME": "UK-DMC 2", "OBJECT_ID": "2009-041C", "EPOCH": "2025-11-30T20:16:15.067776", "MEAN_MOTION": 14.75578356, "ECCENTRICITY": 0.0001251, "INCLINATION": 97.856, "RA_OF_ASC_NODE": 110.0842, "ARG_OF_PERICENTER": 103.0073, "MEAN_ANOMALY": 257.1277, "EPHEMERIS_TYPE": 0, "CLASSIFICATION_TYPE": "U", "NORAD_CAT_ID": 35683, "ELEMENT_SET_NO": 999, "REV_AT_EPOCH": 87731, "BSTAR": 0.00016621, "MEAN_MOTION_DOT": 1.084e-05, "MEAN_MOTION_DDOT": 0, "GROUP": "dmc"}, "tle": {"line1": "1 35683U 09041C   25334.84461884  .00001084  00000+0  16621-3 0  9990", "line2": "2 35683  97.8560 110.0842 0001251 103.0073 257.1277 14.75578356877319"}}, "geometry": {"type": "Point", "coordinates": [-129.69560383486902, -80.94973506372978]}}, {"type": "Feature", "properties": {"norad_id": 40715, "name": "DMC3-FM1", "group": "dmc", "lat": -81.2989106425004, "lon": -38.940430700267896, "alt_km": 620.0623098012156, "timestamp": "2025-12-01T03:58:49.138957+00:00", "meta": {"OBJECT_NAME": "DMC3-FM1", "OBJECT_ID": "2015-032A", "EPOCH": "2025-11-30T20:19:10.915968", "MEAN_MOTION": 14.85406136, "ECCENTRICITY": 0.0005541, "INCLINATION": 97.6706, "RA_OF_ASC_NODE": 202.4717, "ARG_OF_PERICENTER": 2.7607, "MEAN_ANOMALY": 357.3638, "EPHEMERIS_TYPE": 0, "CLASSIFICATION_TYPE": "U", "NORAD_CAT_ID": 40715, "ELEMENT_SET_NO": 999, "REV_AT_EPOCH": 56046, "BSTAR": 0.0001029, "MEAN_MOTION_DOT": 8.35e-06, "MEAN_MOTION_DDOT": 0, "GROUP": "dmc"}, "tle": {"line1": "1 40715U 15032A   25334.84665412  .00000835  00000+0  10290-3 0  9991", "line2": "2 40715  97.6706 202.4717 0005541   2.7607 357.3638 14.85406136560468"}}, "geometry": {"type": "Point", "coordinates": [-38.940430700267896, -81.2989106425004]}}, {"type": "Feature", "properties": {"norad_id": 40716, "name": "DMC3-FM2", "group": "dmc", "lat": 33.85467501850537, "lon": 29.405490263047344, "alt_km": 613.5148508811681, "timestamp": "2025-12-01T03:58:49.138969+00:00", "meta": {"OBJECT_NAME": "DMC3-FM2", "OBJECT_ID": "2015-032B", "EPOCH": "2025-11-30T19:14:35.553696", "MEAN_MOTION": 14.85407095, "ECCENTRICITY": 0.0006197, "INCLINATION": 97.6758, "RA_OF_ASC_NODE": 203.8638, "ARG_OF_PERICENTER": 6.9304, "MEAN_ANOMALY": 353.1996, "EPHEMERIS_TYPE": 0, "CLASSIFICATION_TYPE": "U", "NORAD_CAT_ID": 40716, "ELEMENT_SET_NO": 999, "REV_AT_EPOCH": 56045, "BSTAR": 0.0001047, "MEAN_MOTION_DOT": 8.5e-06, "MEAN_MOTION_DDOT": 0, "GROUP": "dmc"}, "tle": {"line1": "1 40716U 15032B   25334.80180039  .00000850  00000+0  10470-3 0  9992", "line2": "2 40716  97.6758 203.8638 0006197   6.9304 353.1996 14.85407095560456"}}, "geometry": {"type": "Point", "coordinates": [29.405490263047344, 33.85467501850537]}}, {"type": "Feature", "properties": {"norad_id": 40717, "name": "DMC3-FM3", "group": "dmc", "lat": 30.06797751484937, "lon": -158.641175523033, "alt_km": 607.2463418549032, "timestamp": "2025-12-01T03:58:49.138980+00:00", "meta": {"OBJECT_NAME": "DMC3-FM3", "OBJECT_ID": "2015-032C", "EPOCH": "2025-11-30T21:22:38.313408", "MEAN_MOTION": 14.85402154, "ECCENTRICITY": 0.0005541, "INCLINATION": 97.6813, "RA_OF_ASC_NODE": 205.5748, "ARG_OF_PERICENTER": 8.6511, "MEAN_ANOMALY": 351.4799, "EPHEMERIS_TYPE": 0, "CLASSIFICATION_TYPE": "U", "NORAD_CAT_ID": 40717, "ELEMENT_SET_NO": 999, "REV_AT_EPOCH": 56047, "BSTAR": 8.8671e-05, "MEAN_MOTION_DOT": 7.12e-06, "MEAN_MOTION_DDOT": 0, "GROUP": "dmc"}, "tle": {"line1": "1 40717U 15032C   25334.89072122  .00000712  00000+0  88671-4 0  9991", "line2": "2 40717  97.6813 205.5748 0005541   8.6511 351.4799 14.85402154560476"}}, "geometry": {"type": "Point", "coordinates": [-158.641175523033, 30.06797751484937]}}]}